ARIANE 5 R/B            
1 28499U 04049H   26008.19986634  .00001669  00000+0  19033-3 0  9991
2 28499  98.2540 174.4340 0084236 186.3422 173.6733 14.85103561136817
CZ-2D R/B               
1 28738U 05024B   26007.99353955  .00030450  00000+0  45398-3 0  9995
2 28738  97.3626  21.1595 0003367 224.1028 135.9958 15.55035764130335
ALOS (DAICHI)           
1 28931U 06002A   26005.59500709  .00002125  00000+0  36611-3 0  9998
2 28931  98.1128 321.9191 0002014 101.4176 258.7256 14.69578072 64214
H-2A R/B                
1 28932U 06002B   26008.33908759  .00010772  00000+0  55637-3 0  9997
2 28932  98.2331 150.2742 0054622  86.7898 273.9579 15.15191279 85295
RESURS-DK 1             
1 29228U 06021A   26008.15638924  .00002511  00000+0  15067-3 0  9996
2 29228  69.9340  33.5583 0006566 237.1653 122.8881 15.12343098 78374
CZ-4B R/B               
1 29507U 06046C   26008.10485973  .00003966  00000+0  20578-3 0  9990
2 29507  97.5697  53.1716 0035216 116.3514 244.1342 15.16190716 50865
CZ-2C R/B               
1 31114U 07010B   26008.27921352  .00000176  00000+0  99492-4 0  9995
2 31114  98.3971 124.5947 0060066 109.6188 251.1487 14.20222697971147
COSMO-SKYMED 1          
1 31598U 07023A   26008.27732991  .00004845  00000+0  43704-3 0  9995
2 31598  97.8848 198.8548 0001620  83.6113 276.5293 14.96011805  5875
COSMOS 2428             
1 31792U 07029A   26008.28744158  .00000341  00000+0  20909-3 0  9995
2 31792  70.9388 330.1401 0005220 347.2932  12.8056 14.12904940955566
SL-16 R/B               
1 31793U 07029B   26008.26596499 -.00000057  00000+0 -49909-5 0  9996
2 31793  70.9774 299.3978 0002186 273.1238 199.7832 14.14825834956828
KORONAS-FOTON           
1 33504U 09003A   26008.30473424  .00011487  00000+0  26987-3 0  9995
2 33504  82.4323 338.5667 0012054  25.6925 334.4917 15.41786795936437
CZ-2C R/B               
1 37731U 11030B   26007.87619679  .00001450  00000+0  18979-3 0  9990
2 37731  97.8449 326.4108 0052475 186.7057 231.3210 14.80994325781097
H-2A R/B                
1 38341U 12025E   26007.95158308  .00002549  00000+0  23677-3 0  9990
2 38341  98.4635 330.2107 0045565 149.9427 210.4421 14.94638647739143
SHIJIAN-16 (SJ-16)      
1 39358U 13057A   26008.28929478  .00003266  00000+0  32300-3 0  9996
2 39358  74.9741 299.4158 0017889 258.4369 101.4811 14.92115194662490
SL-4 R/B                
1 39679U 14021B   26008.20832568  .00012889  00000+0  30196-3 0  9991
2 39679  51.6070 271.8984 0099748 242.0811 117.0045 15.37384864646967
ALOS-2                  
1 39766U 14029A   26008.25512404  .00000608  00000+0  88279-4 0  9997
2 39766  97.9214 107.7224 0001407  98.7421 261.3950 14.79462788627930
YAOGAN-29               
1 41038U 15069A   26008.33789814  .00000190  00000+0  30129-4 0  9994
2 41038  98.0195  36.5920 0001867 138.0228 222.1129 14.82917071546937
ASTRO-H (HITOMI)        
1 41337U 16012A   26008.33938022  .00003487  00000+0  20609-3 0  9995
2 41337  31.0009  25.8649 0009550  86.9047 273.2684 15.09561227543103
HXMT (HUIYAN)           
1 42758U 17034A   26008.26991457  .00007431  00000+0  37974-3 0  9997
2 42758  43.0155 352.3697 0032953 214.5191 145.3516 15.16627217473362
CZ-2C R/B               
1 43521U 18054D   26008.31853034  .00184700  00000+0  89099-3 0  9993
2 43521  35.1338 359.8199 0010674  55.4889 304.6853 15.80990564419258
SAOCOM 1A               
1 43641U 18076A   26008.27103830  .00001501  00000+0  19499-3 0  9991
2 43641  97.8846 197.3072 0001336  84.7100 275.4265 14.82169582392410
H-2A R/B                
1 43682U 18084L   26008.10845669  .00018017  00000+0  47032-3 0  9994
2 43682  98.8764 212.6772 0025881 233.2542 126.6322 15.38553619396454
SAOCOM 1B               
1 46265U 20059A   26008.30224743  .00000273  00000+0  40810-4 0  9998
2 46265  97.8844 196.4374 0001471  82.9225 277.2155 14.82174206289801
CSS (TIANHE)            
1 48274U 21035A   26008.22312505  .00012515  00000+0  15229-3 0  9997
2 48274  41.4651 215.7921 0011200 243.0655 116.9039 15.60275866268162
COSMOS 2550             
1 48865U 21056A   26008.33074284 -.00000192  00000+0 -20453-7 0  9996
2 48865  67.1412 223.5040 0008382 268.8671  91.1523 15.33825640254200
CZ-2C R/B               
1 52794U 22058K   26008.12278261  .00030754  00000+0  52096-3 0  9992
2 52794  50.1898 268.8523 0043436 306.5937  53.1039 15.50157065200724
CZ-2C R/B               
1 54039U 22132E   26007.97882311  .00033908  00000+0  47114-3 0  9997
2 54039  97.2949   9.7132 0018043 322.4781  37.5214 15.56742561180911
GSLV R/B                
1 54149U 22138AN  26008.20677372  .00002840  00000+0  24770-3 0  9995
2 54149  87.3828 186.6085 0022397  17.6345 342.5658 14.96300699174882
XRISM                   
1 57800U 23137A   26008.20058572  .00006805  00000+0  39492-3 0  9999
2 57800  31.0030 314.6652 0007815 154.6368 205.4655 15.10703675128632
ACS3                    
1 59588U 24077B   26008.31686751  .00014727  00000+0  12395-1 0  9999
2 59588  97.2475 322.9836 0065088 271.4226  87.9481 13.86926720 85829
SZ-21 MODULE            
1 66515U 25246C   26007.86050997  .00025291  00000+0  26192-3 0  9992
2 66515  41.4742 216.5245 0001494  84.1343 275.9668 15.64106684  8533
